{
  "type": "FeatureCollection",
  "features": [
    {
      "type": "Feature",
      "properties": {
        "village_id": "694ecb17a389e80b4a3cadec",
        "village_name": "Lagdo",
        "center": [
          13.665618896484375,
          9.050565088042529
        ],
        "area": 5592.962986663614
      },
      "geometry": {
        "type": "Polygon",
        "coordinates": [
          [
            [
              14.165618896484375,
              8.550565088042529
            ],
            [
              14.165618896484375,
              9.563109658164622
            ],
            [
              14.06723654137097,
              9.563109658164622
            ],
            [
              13.635970283035734,
              9.024001183983225
            ],
            [
              13.475796730860566,
              8.550565088042529
            ],
            [
              14.165618896484375,
              8.550565088042529
            ]
          ]
        ]
      }
    },
    {
      "type": "Feature",
      "properties": {
        "village_id": "694eeeddd588b1c0adc707e3",
        "village_name": "Lagdo 2",
        "center": [
          13.655376441311095,
          9.058758662305026
        ],
        "area": 1130.988865676476
      },
      "geometry": {
        "type": "Polygon",
        "coordinates": [
          [
            [
              13.72337614009913,
              9.563109658164622
            ],
            [
              13.635970283035734,
              9.024001183983225
            ],
            [
              14.06723654137097,
              9.563109658164622
            ],
            [
              13.72337614009913,
              9.563109658164622
            ]
          ]
        ]
      }
    },
    {
      "type": "Feature",
      "properties": {
        "village_id": "695011fd4b464a8b7babe316",
        "village_name": "Bamsi",
        "center": [
          13.6285400390625,
          9.063109658164622
        ],
        "area": 6097.632572602619
      },
      "geometry": {
        "type": "Polygon",
        "coordinates": [
          [
            [
              13.1285400390625,
              9.563109658164622
            ],
            [
              13.1285400390625,
              8.550565088042529
            ],
            [
              13.475796730860566,
              8.550565088042529
            ],
            [
              13.635970283035734,
              9.024001183983225
            ],
            [
              13.72337614009913,
              9.563109658164622
            ],
            [
              13.1285400390625,
              9.563109658164622
            ]
          ]
        ]
      }
    }
  ]
}